[{"OBJECT_NAME":"ONEWEB-0660","OBJECT_ID":"2023-029AA","EPOCH":"2025-09-02T18:46:06.652416","MEAN_MOTION":13.14503918,"ECCENTRICITY":0.00017314,"INCLINATION":87.9094,"RA_OF_ASC_NODE":346.8978,"ARG_OF_PERICENTER":89.3743,"MEAN_ANOMALY":270.7585,"EPHEMERIS_TYPE":0,"CLASSIFICATION_TYPE":"U","NORAD_CAT_ID":55820,"ELEMENT_SET_NO":999,"REV_AT_EPOCH":12164,"BSTAR":-0.00065810305,"MEAN_MOTION_DOT":-2.31e-6,"MEAN_MOTION_DDOT":0},{"OBJECT_NAME":"ONEWEB-0661","OBJECT_ID":"2023-029AB","EPOCH":"2025-09-02T19:36:21.480192","MEAN_MOTION":13.14502356,"ECCENTRICITY":0.00018357,"INCLINATION":87.9098,"RA_OF_ASC_NODE":346.9628,"ARG_OF_PERICENTER":87.2197,"MEAN_ANOMALY":272.9143,"EPHEMERIS_TYPE":0,"CLASSIFICATION_TYPE":"U","NORAD_CAT_ID":55821,"ELEMENT_SET_NO":999,"REV_AT_EPOCH":12163,"BSTAR":0.0004265557,"MEAN_MOTION_DOT":1.71e-6,"MEAN_MOTION_DDOT":0},{"OBJECT_NAME":"ONEWEB-0662","OBJECT_ID":"2023-029AC","EPOCH":"2025-09-02T18:36:58.497120","MEAN_MOTION":13.14503177,"ECCENTRICITY":0.00016544,"INCLINATION":87.909,"RA_OF_ASC_NODE":346.9775,"ARG_OF_PERICENTER":89.2901,"MEAN_ANOMALY":270.8418,"EPHEMERIS_TYPE":0,"CLASSIFICATION_TYPE":"U","NORAD_CAT_ID":55822,"ELEMENT_SET_NO":999,"REV_AT_EPOCH":12167,"BSTAR":-0.00048669589,"MEAN_MOTION_DOT":-1.68e-6,"MEAN_MOTION_DDOT":0},{"OBJECT_NAME":"ONEWEB-0663","OBJECT_ID":"2023-029AD","EPOCH":"2025-09-02T18:14:06.205920","MEAN_MOTION":13.20844264,"ECCENTRICITY":0.00015798,"INCLINATION":87.9309,"RA_OF_ASC_NODE":331.773,"ARG_OF_PERICENTER":86.8974,"MEAN_ANOMALY":273.234,"EPHEMERIS_TYPE":0,"CLASSIFICATION_TYPE":"U","NORAD_CAT_ID":55823,"ELEMENT_SET_NO":999,"REV_AT_EPOCH":12320,"BSTAR":-0.00013750812,"MEAN_MOTION_DOT":-4.3e-7,"MEAN_MOTION_DDOT":0},{"OBJECT_NAME":"ONEWEB-0664","OBJECT_ID":"2023-029AE","EPOCH":"2025-09-02T18:29:04.656192","MEAN_MOTION":13.20770235,"ECCENTRICITY":0.00021507,"INCLINATION":87.9297,"RA_OF_ASC_NODE":331.7916,"ARG_OF_PERICENTER":90.7125,"MEAN_ANOMALY":269.4255,"EPHEMERIS_TYPE":0,"CLASSIFICATION_TYPE":"U","NORAD_CAT_ID":55824,"ELEMENT_SET_NO":999,"REV_AT_EPOCH":12320,"BSTAR":-0.00021534369,"MEAN_MOTION_DOT":-7.5e-7,"MEAN_MOTION_DDOT":0},{"OBJECT_NAME":"ONEWEB-0665","OBJECT_ID":"2023-029AF","EPOCH":"2025-09-02T19:31:46.723008","MEAN_MOTION":13.14502561,"ECCENTRICITY":0.00016249,"INCLINATION":87.9099,"RA_OF_ASC_NODE":346.9384,"ARG_OF_PERICENTER":91.45,"MEAN_ANOMALY":268.6816,"EPHEMERIS_TYPE":0,"CLASSIFICATION_TYPE":"U","NORAD_CAT_ID":55825,"ELEMENT_SET_NO":999,"REV_AT_EPOCH":12165,"BSTAR":0.00051365826,"MEAN_MOTION_DOT":2.03e-6,"MEAN_MOTION_DDOT":0},{"OBJECT_NAME":"ONEWEB-0666","OBJECT_ID":"2023-029AG","EPOCH":"2025-09-02T18:19:59.572416","MEAN_MOTION":13.20769888,"ECCENTRICITY":0.00022504,"INCLINATION":87.9292,"RA_OF_ASC_NODE":331.781,"ARG_OF_PERICENTER":117.1661,"MEAN_ANOMALY":242.9702,"EPHEMERIS_TYPE":0,"CLASSIFICATION_TYPE":"U","NORAD_CAT_ID":55826,"ELEMENT_SET_NO":999,"REV_AT_EPOCH":12321,"BSTAR":-0.00014984653,"MEAN_MOTION_DOT":-4.8e-7,"MEAN_MOTION_DDOT":0},{"OBJECT_NAME":"ONEWEB-0667","OBJECT_ID":"2023-029AH","EPOCH":"2025-09-02T18:10:53.449248","MEAN_MOTION":13.20769707,"ECCENTRICITY":0.00018408,"INCLINATION":87.9295,"RA_OF_ASC_NODE":331.7099,"ARG_OF_PERICENTER":92.5774,"MEAN_ANOMALY":267.557,"EPHEMERIS_TYPE":0,"CLASSIFICATION_TYPE":"U","NORAD_CAT_ID":55827,"ELEMENT_SET_NO":999,"REV_AT_EPOCH":12320,"BSTAR":-5.3893014e-5,"MEAN_MOTION_DOT":-9.0e-8,"MEAN_MOTION_DDOT":0},{"OBJECT_NAME":"ONEWEB-0669","OBJECT_ID":"2023-029AJ","EPOCH":"2025-09-02T18:04:04.477440","MEAN_MOTION":13.2077369,"ECCENTRICITY":0.00025897,"INCLINATION":87.9299,"RA_OF_ASC_NODE":331.7499,"ARG_OF_PERICENTER":98.7715,"MEAN_ANOMALY":261.3711,"EPHEMERIS_TYPE":0,"CLASSIFICATION_TYPE":"U","NORAD_CAT_ID":55828,"ELEMENT_SET_NO":999,"REV_AT_EPOCH":12320,"BSTAR":3.8438853e-5,"MEAN_MOTION_DOT":2.9e-7,"MEAN_MOTION_DDOT":0},{"OBJECT_NAME":"ONEWEB-0670","OBJECT_ID":"2023-029AK","EPOCH":"2025-09-02T17:10:12.379584","MEAN_MOTION":13.14502288,"ECCENTRICITY":0.00019689,"INCLINATION":87.9097,"RA_OF_ASC_NODE":346.9781,"ARG_OF_PERICENTER":87.9089,"MEAN_ANOMALY":272.2266,"EPHEMERIS_TYPE":0,"CLASSIFICATION_TYPE":"U","NORAD_CAT_ID":55829,"ELEMENT_SET_NO":999,"REV_AT_EPOCH":12166,"BSTAR":-4.6402728e-5,"MEAN_MOTION_DOT":-4.0e-8,"MEAN_MOTION_DDOT":0},{"OBJECT_NAME":"ONEWEB-0671","OBJECT_ID":"2023-029AL","EPOCH":"2025-09-02T19:02:53.019744","MEAN_MOTION":13.19727513,"ECCENTRICITY":0.00017624,"INCLINATION":87.9276,"RA_OF_ASC_NODE":2.1246,"ARG_OF_PERICENTER":93.0232,"MEAN_ANOMALY":267.1103,"EPHEMERIS_TYPE":0,"CLASSIFICATION_TYPE":"U","NORAD_CAT_ID":55830,"ELEMENT_SET_NO":999,"REV_AT_EPOCH":12099,"BSTAR":-3.941454e-6,"MEAN_MOTION_DOT":1.1e-7,"MEAN_MOTION_DDOT":0},{"OBJECT_NAME":"ONEWEB-0672","OBJECT_ID":"2023-029AM","EPOCH":"2025-09-02T17:57:16.086240","MEAN_MOTION":13.20772625,"ECCENTRICITY":0.00021014,"INCLINATION":87.9292,"RA_OF_ASC_NODE":331.7349,"ARG_OF_PERICENTER":105.3955,"MEAN_ANOMALY":254.7411,"EPHEMERIS_TYPE":0,"CLASSIFICATION_TYPE":"U","NORAD_CAT_ID":55831,"ELEMENT_SET_NO":999,"REV_AT_EPOCH":12320,"BSTAR":0.00013036465,"MEAN_MOTION_DOT":6.6e-7,"MEAN_MOTION_DDOT":0},{"OBJECT_NAME":"ONEWEB-0673","OBJECT_ID":"2023-029AN","EPOCH":"2025-09-02T16:39:34.769952","MEAN_MOTION":13.1972548,"ECCENTRICITY":0.00015758,"INCLINATION":87.9286,"RA_OF_ASC_NODE":2.1101,"ARG_OF_PERICENTER":97.5059,"MEAN_ANOMALY":262.6252,"EPHEMERIS_TYPE":0,"CLASSIFICATION_TYPE":"U","NORAD_CAT_ID":55832,"ELEMENT_SET_NO":999,"REV_AT_EPOCH":12098,"BSTAR":0.00030348779,"MEAN_MOTION_DOT":1.34e-6,"MEAN_MOTION_DDOT":0},{"OBJECT_NAME":"ONEWEB-0674","OBJECT_ID":"2023-029AP","EPOCH":"2025-09-02T20:03:45.167616","MEAN_MOTION":13.14504011,"ECCENTRICITY":0.00020606,"INCLINATION":87.9095,"RA_OF_ASC_NODE":346.9373,"ARG_OF_PERICENTER":86.6333,"MEAN_ANOMALY":273.5032,"EPHEMERIS_TYPE":0,"CLASSIFICATION_TYPE":"U","NORAD_CAT_ID":55833,"ELEMENT_SET_NO":999,"REV_AT_EPOCH":12166,"BSTAR":-0.00045465866,"MEAN_MOTION_DOT":-1.56e-6,"MEAN_MOTION_DDOT":0},{"OBJECT_NAME":"ONEWEB-0675","OBJECT_ID":"2023-029AQ","EPOCH":"2025-09-02T18:51:30.060576","MEAN_MOTION":13.19724056,"ECCENTRICITY":0.00017374,"INCLINATION":87.9277,"RA_OF_ASC_NODE":2.1369,"ARG_OF_PERICENTER":109.344,"MEAN_ANOMALY":250.788,"EPHEMERIS_TYPE":0,"CLASSIFICATION_TYPE":"U","NORAD_CAT_ID":55834,"ELEMENT_SET_NO":999,"REV_AT_EPOCH":12101,"BSTAR":3.6770629e-5,"MEAN_MOTION_DOT":2.8e-7,"MEAN_MOTION_DDOT":0},{"OBJECT_NAME":"ONEWEB-0720","OBJECT_ID":"2023-029AR","EPOCH":"2025-09-02T20:29:19.610016","MEAN_MOTION":13.19725496,"ECCENTRICITY":0.00014386,"INCLINATION":87.9272,"RA_OF_ASC_NODE":2.1201,"ARG_OF_PERICENTER":89.0594,"MEAN_ANOMALY":271.0704,"EPHEMERIS_TYPE":0,"CLASSIFICATION_TYPE":"U","NORAD_CAT_ID":55835,"ELEMENT_SET_NO":999,"REV_AT_EPOCH":12094,"BSTAR":-0.00023172723,"MEAN_MOTION_DOT":-8.0e-7,"MEAN_MOTION_DDOT":0}]
