ONEWEB-0660             
1 55820U 23029AA  25245.78202144 -.00000231  00000+0 -65810-3 0  9992
2 55820  87.9094 346.8978 0001731  89.3743 270.7585 13.14503918121643
ONEWEB-0661             
1 55821U 23029AB  25245.81691528  .00000171  00000+0  42656-3 0  9999
2 55821  87.9098 346.9628 0001835  87.2197 272.9143 13.14502356121634
ONEWEB-0662             
1 55822U 23029AC  25245.77567705 -.00000168  00000+0 -48670-3 0  9994
2 55822  87.9090 346.9775 0001654  89.2901 270.8418 13.14503177121672
ONEWEB-0663             
1 55823U 23029AD  25245.75979405 -.00000043  00000+0 -13751-3 0  9991
2 55823  87.9309 331.7730 0001579  86.8974 273.2340 13.20844264123202
ONEWEB-0664             
1 55824U 23029AE  25245.77019278 -.00000075  00000+0 -21534-3 0  9990
2 55824  87.9297 331.7916 0002150  90.7125 269.4255 13.20770235123201
ONEWEB-0665             
1 55825U 23029AF  25245.81373522  .00000203  00000+0  51366-3 0  9998
2 55825  87.9099 346.9384 0001624  91.4500 268.6816 13.14502561121658
ONEWEB-0666             
1 55826U 23029AG  25245.76388394 -.00000048  00000+0 -14985-3 0  9991
2 55826  87.9292 331.7810 0002250 117.1661 242.9702 13.20769888123217
ONEWEB-0667             
1 55827U 23029AH  25245.75756307 -.00000009  00000+0 -53893-4 0  9993
2 55827  87.9295 331.7099 0001840  92.5774 267.5570 13.20769707123200
ONEWEB-0669             
1 55828U 23029AJ  25245.75282960  .00000029  00000+0  38439-4 0  9992
2 55828  87.9299 331.7499 0002589  98.7715 261.3711 13.20773690123208
ONEWEB-0670             
1 55829U 23029AK  25245.71542106 -.00000004  00000+0 -46403-4 0  9995
2 55829  87.9097 346.9781 0001968  87.9089 272.2266 13.14502288121661
ONEWEB-0671             
1 55830U 23029AL  25245.79366921  .00000011  00000+0 -39415-5 0  9997
2 55830  87.9276   2.1246 0001762  93.0232 267.1103 13.19727513120992
ONEWEB-0672             
1 55831U 23029AM  25245.74810285  .00000066  00000+0  13036-3 0  9998
2 55831  87.9292 331.7349 0002101 105.3955 254.7411 13.20772625123200
ONEWEB-0673             
1 55832U 23029AN  25245.69415243  .00000134  00000+0  30349-3 0  9990
2 55832  87.9286   2.1101 0001575  97.5059 262.6252 13.19725480120988
ONEWEB-0674             
1 55833U 23029AP  25245.83593944 -.00000156  00000+0 -45466-3 0  9994
2 55833  87.9095 346.9373 0002060  86.6333 273.5032 13.14504011121664
ONEWEB-0675             
1 55834U 23029AQ  25245.78576459  .00000028  00000+0  36771-4 0  9997
2 55834  87.9277   2.1369 0001737 109.3440 250.7880 13.19724056121010
ONEWEB-0720             
1 55835U 23029AR  25245.85369919 -.00000080  00000+0 -23173-3 0  9998
2 55835  87.9272   2.1201 0001438  89.0594 271.0704 13.19725496120944
